STARLINK-1441
1 15658C 20035B   21326.11895032  .00006483  00000-0  43440-3 0  3264
2 15658  53.0531 268.2100 0001906  59.1006  13.7067 15.06386594    15
